{
  "type": "FeatureCollection",
  "features": [
    {
      "type": "Feature",
      "properties": {
        "norad_id": 41890,
        "name": "CYGFM07",
        "group": "weather",
        "lat": 9.748749821210513,
        "lon": -34.76171663618493,
        "alt_km": 410.7773880028026,
        "timestamp": "2025-12-23T11:34:47.828597+00:00",
        "meta_object_name": "CYGFM07",
        "meta_object_id": "2016-078G",
        "meta_epoch": "2025-12-23T02:14:02.846400",
        "meta_mean_motion": 15.50423278,
        "meta_eccentricity": 0.0009703,
        "meta_inclination": 34.9481,
        "meta_ra_of_asc_node": 313.551,
        "meta_arg_of_pericenter": 302.9672,
        "meta_mean_anomaly": 57.0117,
        "meta_ephemeris_type": 0,
        "meta_classification_type": "U",
        "meta_norad_cat_id": 41890,
        "meta_element_set_no": 999,
        "meta_rev_at_epoch": 50156,
        "meta_bstar": 0.00039101,
        "meta_mean_motion_dot": 0.00023008,
        "meta_mean_motion_ddot": 0,
        "tle_line1": "1 41890U 16078G   25357.09308850  .00023008  00000+0  39101-3 0  9998",
        "tle_line2": "2 41890  34.9481 313.5510 0009703 302.9672  57.0117 15.50423278501564"
      },
      "geometry": {
        "type": "Point",
        "coordinates": [
          -34.76171663618493,
          9.748749821210513
        ]
      }
    },
    {
      "type": "Feature",
      "properties": {
        "norad_id": 41891,
        "name": "CYGFM03",
        "group": "weather",
        "lat": -15.518005246872534,
        "lon": 156.35341911917948,
        "alt_km": 416.0582050079893,
        "timestamp": "2025-12-23T11:34:47.828606+00:00",
        "meta_object_name": "CYGFM03",
        "meta_object_id": "2016-078H",
        "meta_epoch": "2025-12-22T22:19:25.327200",
        "meta_mean_motion": 15.50310719,
        "meta_eccentricity": 0.0009528,
        "meta_inclination": 34.9437,
        "meta_ra_of_asc_node": 316.5448,
        "meta_arg_of_pericenter": 289.6347,
        "meta_mean_anomaly": 70.3347,
        "meta_ephemeris_type": 0,
        "meta_classification_type": "U",
        "meta_norad_cat_id": 41891,
        "meta_element_set_no": 999,
        "meta_rev_at_epoch": 50151,
        "meta_bstar": 0.00040606,
        "meta_mean_motion_dot": 0.00023801,
        "meta_mean_motion_ddot": 0,
        "tle_line1": "1 41891U 16078H   25356.93015425  .00023801  00000+0  40606-3 0  9997",
        "tle_line2": "2 41891  34.9437 316.5448 0009528 289.6347  70.3347 15.50310719501517"
      },
      "geometry": {
        "type": "Point",
        "coordinates": [
          156.35341911917948,
          -15.518005246872534
        ]
      }
    },
    {
      "type": "Feature",
      "properties": {
        "norad_id": 43010,
        "name": "FENGYUN 3D",
        "group": "weather",
        "lat": 17.91856216830073,
        "lon": 146.88809970620068,
        "alt_km": 825.7099931728562,
        "timestamp": "2025-12-23T11:34:47.828616+00:00",
        "meta_object_name": "FENGYUN 3D",
        "meta_object_id": "2017-072A",
        "meta_epoch": "2025-12-23T04:03:17.217792",
        "meta_mean_motion": 14.19688025,
        "meta_eccentricity": 0.0001429,
        "meta_inclination": 98.9906,
        "meta_ra_of_asc_node": 323.6355,
        "meta_arg_of_pericenter": 151.8558,
        "meta_mean_anomaly": 208.2695,
        "meta_ephemeris_type": 0,
        "meta_classification_type": "U",
        "meta_norad_cat_id": 43010,
        "meta_element_set_no": 999,
        "meta_rev_at_epoch": 42001,
        "meta_bstar": 0.00020765,
        "meta_mean_motion_dot": 3.93e-06,
        "meta_mean_motion_ddot": 0,
        "tle_line1": "1 43010U 17072A   25357.16894928  .00000393  00000+0  20765-3 0  9991",
        "tle_line2": "2 43010  98.9906 323.6355 0001429 151.8558 208.2695 14.19688025420010"
      },
      "geometry": {
        "type": "Point",
        "coordinates": [
          146.88809970620068,
          17.91856216830073
        ]
      }
    },
    {
      "type": "Feature",
      "properties": {
        "norad_id": 43013,
        "name": "NOAA 20 (JPSS-1)",
        "group": "weather",
        "lat": -51.500852062953435,
        "lon": -55.158335738526944,
        "alt_km": 834.6876715196322,
        "timestamp": "2025-12-23T11:34:47.828625+00:00",
        "meta_object_name": "NOAA 20 (JPSS-1)",
        "meta_object_id": "2017-073A",
        "meta_epoch": "2025-12-23T01:40:34.594176",
        "meta_mean_motion": 14.19528369,
        "meta_eccentricity": 0.0002105,
        "meta_inclination": 98.7613,
        "meta_ra_of_asc_node": 293.2542,
        "meta_arg_of_pericenter": 72.5078,
        "meta_mean_anomaly": 287.6328,
        "meta_ephemeris_type": 0,
        "meta_classification_type": "U",
        "meta_norad_cat_id": 43013,
        "meta_element_set_no": 999,
        "meta_rev_at_epoch": 41948,
        "meta_bstar": 6.6058e-05,
        "meta_mean_motion_dot": 9.5e-07,
        "meta_mean_motion_ddot": 0,
        "tle_line1": "1 43013U 17073A   25357.06984484  .00000095  00000+0  66058-4 0  9996",
        "tle_line2": "2 43013  98.7613 293.2542 0002105  72.5078 287.6328 14.19528369419481"
      },
      "geometry": {
        "type": "Point",
        "coordinates": [
          -55.158335738526944,
          -51.500852062953435
        ]
      }
    },
    {
      "type": "Feature",
      "properties": {
        "norad_id": 43226,
        "name": "GOES 17",
        "group": "weather",
        "lat": 0.48826800805893955,
        "lon": 176.42778062365593,
        "alt_km": 35788.672602415274,
        "timestamp": "2025-12-23T11:34:47.828636+00:00",
        "meta_object_name": "GOES 17",
        "meta_object_id": "2018-022A",
        "meta_epoch": "2025-12-23T01:55:32.889792",
        "meta_mean_motion": 1.00272696,
        "meta_eccentricity": 0.000299,
        "meta_inclination": 0.4827,
        "meta_ra_of_asc_node": 89.0912,
        "meta_arg_of_pericenter": 190.5637,
        "meta_mean_anomaly": 111.6024,
        "meta_ephemeris_type": 0,
        "meta_classification_type": "U",
        "meta_norad_cat_id": 43226,
        "meta_element_set_no": 999,
        "meta_rev_at_epoch": 2865,
        "meta_bstar": 0,
        "meta_mean_motion_dot": -1.62e-06,
        "meta_mean_motion_ddot": 0,
        "tle_line1": "1 43226U 18022A   25357.08024178 -.00000162  00000+0  00000+0 0  9990",
        "tle_line2": "2 43226   0.4827  89.0912 0002990 190.5637 111.6024  1.00272696 28659"
      },
      "geometry": {
        "type": "Point",
        "coordinates": [
          176.42778062365593,
          0.48826800805893955
        ]
      }
    },
    {
      "type": "Feature",
      "properties": {
        "norad_id": 43491,
        "name": "FENGYUN 2H",
        "group": "weather",
        "lat": -2.575030566274031,
        "lon": -14.666741462186183,
        "alt_km": 35788.02312661078,
        "timestamp": "2025-12-23T11:34:47.828648+00:00",
        "meta_object_name": "FENGYUN 2H",
        "meta_object_id": "2018-050A",
        "meta_epoch": "2025-12-23T01:31:34.253760",
        "meta_mean_motion": 1.00270908,
        "meta_eccentricity": 0.0002368,
        "meta_inclination": 2.5759,
        "meta_ra_of_asc_node": 81.2213,
        "meta_arg_of_pericenter": 166.1464,
        "meta_mean_anomaly": 306.7296,
        "meta_ephemeris_type": 0,
        "meta_classification_type": "U",
        "meta_norad_cat_id": 43491,
        "meta_element_set_no": 999,
        "meta_rev_at_epoch": 2767,
        "meta_bstar": 0,
        "meta_mean_motion_dot": -1.1e-06,
        "meta_mean_motion_ddot": 0,
        "tle_line1": "1 43491U 18050A   25357.06359090 -.00000110  00000+0  00000+0 0  9990",
        "tle_line2": "2 43491   2.5759  81.2213 0002368 166.1464 306.7296  1.00270908 27677"
      },
      "geometry": {
        "type": "Point",
        "coordinates": [
          -14.666741462186183,
          -2.575030566274031
        ]
      }
    },
    {
      "type": "Feature",
      "properties": {
        "norad_id": 43689,
        "name": "METOP-C",
        "group": "weather",
        "lat": 15.342770339433843,
        "lon": -122.50795904745549,
        "alt_km": 821.4828670003972,
        "timestamp": "2025-12-23T11:34:47.828668+00:00",
        "meta_object_name": "METOP-C",
        "meta_object_id": "2018-087A",
        "meta_epoch": "2025-12-23T04:03:07.026912",
        "meta_mean_motion": 14.21488295,
        "meta_eccentricity": 7.36e-05,
        "meta_inclination": 98.6914,
        "meta_ra_of_asc_node": 54.7779,
        "meta_arg_of_pericenter": 19.9929,
        "meta_mean_anomaly": 340.1277,
        "meta_ephemeris_type": 0,
        "meta_classification_type": "U",
        "meta_norad_cat_id": 43689,
        "meta_element_set_no": 999,
        "meta_rev_at_epoch": 36982,
        "meta_bstar": 8.4238e-05,
        "meta_mean_motion_dot": 1.41e-06,
        "meta_mean_motion_ddot": 0,
        "tle_line1": "1 43689U 18087A   25357.16883133  .00000141  00000+0  84238-4 0  9993",
        "tle_line2": "2 43689  98.6914  54.7779 0000736  19.9929 340.1277 14.21488295369829"
      },
      "geometry": {
        "type": "Point",
        "coordinates": [
          -122.50795904745549,
          15.342770339433843
        ]
      }
    }
  ]
}